#dP2024 11 13  0  0  0.00000000      96 __u+U IGS20 EXT  IAC
## 2340 259200.00000000   900.00000000 60627 0.0000000000000
+   52   G02G03G04G05G06G07G08G09G10G11G12G13G14G15G16G17G18
+        G19G20G21G22G23G24G25G26G27G28G29G30G31G32R01R02R03
+        R04R05R07R08R09R11R12R14R15R16R17R18R19R20R21R22R24
+        R26  0  0  0  0  0  0  0  0  0  0  0  0  0  0  0  0
+          0  0  0  0  0  0  0  0  0  0  0  0  0  0  0  0  0
++         6 10  8  7  6  7  6  6  6  7  8  6  8  6  8  7  8
++         7  8  6  8  9  8  9  8  7  7  7  9  8  7  8  7  7
++         8  8  8  8  7  7  8  7  8  9  7  6  8  9  6  7  8
++         8  0  0  0  0  0  0  0  0  0  0  0  0  0  0  0  0
++         0  0  0  0  0  0  0  0  0  0  0  0  0  0  0  0  0
%c M  cc GPS ccc cccc cccc cccc cccc ccccc ccccc ccccc ccccc
%c cc cc ccc ccc cccc cccc cccc cccc ccccc ccccc ccccc ccccc
%f  0.0000000  0.000000000  0.00000000000  0.000000000000000
%f  0.0000000  0.000000000  0.00000000000  0.000000000000000
%i    0    0    0    0      0      0      0      0         0
%i    0    0    0    0      0      0      0      0         0
/* IAC                                ULTRA-RAPID PREDICTION
/* S/V CLOCKS ARE ALIGNED TO GNSS TIME                      
/* G:C1WC2W R:C1PC2P E:C1XC5X C:C2IC6I J:C1CC2S             
/* PCV:IGS20_2317 OL/AL:FES2004  NONE     YN ORB:CoN CLK:CoN
*  2024 11 13 11 30  0.00000000
PG02 -14193.450257  22208.273897   -110.361461   -315.555847
PG03  -9395.566215  12929.341380 -21356.572208    598.609153
PG04  -3046.169791  21610.938196 -15017.590462    478.718569
PG05  23178.351521  -5848.214571  11466.922776   -192.862378
PG06  14135.228215   5261.357590 -21803.888883   -111.264708
PG07  -1634.793671  21142.362754  16237.991773    -20.434283
PG08 -10901.192949  11984.398194  20850.817292    412.332473
PG09   5526.107960  24950.252706  -7200.974231    441.708156
PG10 -21850.001841 -10580.563986  11390.822201   -194.170748
PG11  20329.930921  -7849.149155 -15099.425386   -749.863063
PG12  14337.404832 -11085.695816 -19685.010935   -551.777417
PG13  14600.972058  -2860.495239  21772.970000    685.834480
PG14  18748.945591  13017.531154  13819.936684    538.827259
PG15   8934.490755 -13910.866650  20238.317850    227.255347
PG16 -25637.162517   -394.918712   7420.622973   -129.538737
PG17  13245.748279  21256.743731  -8123.120366    560.327992
PG18    850.279954 -19968.410969  17406.442296   -660.270628
PG19  16036.173832  13517.313719 -16693.236962    562.231606
PG20  26452.230887  -1214.355265    -40.857615    368.779387
PG21 -16864.157224  18980.598832   5898.152254     97.564461
PG22  23266.267025  10437.538004   7227.254013    -79.056092
PG23  -9561.993873 -14554.572408  20158.516585    362.314942
PG24  14370.333922 -22037.416368    764.835843   -480.494326
PG25   -858.406801 -15746.825833 -21740.265655    499.034599
PG26 -26008.530604  -4602.262132  -4525.011896     27.656158
PG27 -16018.680612   -159.602154  20955.699676    -34.721690
PG28 -13364.702348  -7418.036371 -21737.454662   -477.552833
PG29  -2572.919325 -25196.794878  -7827.429746   -564.116256
PG30   8419.972720  14286.805143  20851.311663   -282.833142
PG31 -19377.593521   3423.247830 -18249.215950   -221.837065
PG32 -15781.964231 -18688.617223 -10382.741831   -574.328553
PR01   2535.417692 -12352.696839  22168.352446    104.284845
PR02 -10895.623479 -19969.799519  11656.332098    -25.597922
PR03 -18813.236523 -16317.913597  -5637.538650    111.304397
PR04 -15976.601984  -4241.594678 -19411.239394    263.777689
PR05  -4891.268761  10261.828889 -22825.062188    140.639846
PR07  18841.242392  15997.361309   6218.691740     94.897057
PR08  15942.973511   3705.217941  19603.568649     -6.259436
PR09   1753.369247  11248.654574  22841.294336    220.300619
PR11  24899.903204  -4294.461342   3571.656324      7.028660
PR12  16955.516875 -11488.100688 -15175.289094     47.189508
PR14 -18242.413446  -4166.374462 -17317.032047     27.236121
PR15 -24942.696378   5027.516271  -1743.016718     74.170429
PR16 -17053.393842  11426.142349  15124.987765     30.764453
PR17  -7681.296761  -9752.399425  22291.588507    139.476086
PR18 -12450.802670   7392.079265  21011.116335    171.673454
PR19 -12238.787687  19647.033475  10737.251323   -298.285485
PR20  -3383.292845  22982.065222 -10483.094194   -121.886616
PR21   7021.659100  10833.520753 -21997.645388   -150.936666
PR22  13104.373739  -8313.456084 -20214.052019     -8.838561
PR24   1749.896469 -23001.462595  10888.488538    -79.942112
PR26  16755.923037   5174.132437  18546.844923   -133.545114
*  2024 11 13 11 45  0.00000000
PG02 -14368.293218  21984.041484   2773.196544   -315.548185
PG03 -11724.117622  12618.927685 -20350.169340    598.618531
PG04  -3902.053593  19976.475928 -16968.154649    478.724425
PG05  24353.280604  -5594.890901   8920.060198   -192.863350
PG06  12640.417647   7291.091300 -22124.207033   -111.290894
PG07  -2790.090229  22376.512007  14193.830554    -20.432152
PG08 -12055.652874   9821.535664  21376.837818    412.341729
PG09   4889.320929  24186.154813  -9829.442583    441.723459
PG10 -20452.535555 -10558.417123  13771.947133   -194.183733
PG11  19314.003535  -6298.345853 -17036.358539   -749.864585
PG12  16405.628921 -10610.423803 -18255.539369   -551.779656
PG13  15287.784450   -433.755553  21507.184061    685.835926
PG14  17050.707691  13014.260017  15856.941745    538.834554
PG15  10358.525819 -11892.096934  20836.315662    227.259428
PG16 -26310.129426   -741.687739   4702.377586   -129.529953
PG17  13306.987899  22117.975747  -5388.425679    560.314979
PG18   2102.507994 -21382.732667  15493.185934   -660.271046
PG19  16455.062447  15229.334740 -14712.260377    562.235639
PG20  26298.072670   -922.114045  -2890.014450    368.779112
PG21 -16724.774577  18121.918977   8648.284077     97.563653
PG22  22298.545171  10506.981168   9869.993984    -79.058704
PG23  -7217.390726 -14441.068891  21171.755443    362.322100
PG24  14535.531075 -21593.746342   3574.849918   -480.492417
PG25   1554.502601 -15551.251654 -21820.221446    499.034356
PG26 -25357.798834  -4888.871117  -7191.017668     27.644385
PG27 -16969.154269  -2367.290844  20107.052164    -34.721645
PG28 -11978.038911  -9479.261708 -21744.362557   -477.563510
PG29  -2010.509899 -24291.991655 -10442.015667   -564.113654
PG30   6980.766451  16112.001530  20005.668962   -282.826095
PG31 -18195.609071   1668.088029 -19642.469169   -221.836470
PG32 -16032.155742 -19743.485790  -7796.009628   -574.323847
PR01   4531.179126 -10420.170600  22833.159994    104.286107
PR02  -9889.963753 -18723.484479  14319.506783    -25.597934
PR03 -19287.923393 -16558.268415  -2471.645733    111.304991
PR04 -17647.257971  -5799.405917 -17468.523240    263.779227
PR05  -6854.697461   8208.725909 -23150.684984    140.640384
PR07  19354.890884  16289.052056   3060.016238     94.897806
PR08  17627.265544   5264.016064  17704.102837     -6.259288
PR09   -913.465310  12067.036095  22462.319784    220.302723
PR11  24251.751175  -4264.527105   6701.230055      7.028001
PR12  18586.965896 -12040.446059 -12624.844545     47.189993
PR14 -16050.631159  -4710.549543 -19241.466673     27.236346
PR15 -24510.863711   5043.197293  -4913.289667     74.170208
PR16 -18668.267579  11996.911791  12553.958852     30.764690
PR17  -7024.641547 -12353.657982  21186.566275    139.479255
PR18 -11636.755517   4854.224536  22189.160886    171.675240
PR19 -11598.922827  18281.532764  13503.831949   -298.286715
PR20  -3542.166540  24102.425291  -7489.716380   -121.886565
PR21   6366.488925  13394.074183 -20755.024716   -150.939546
PR22  12269.896301  -5867.043433 -21549.038100     -8.849259
PR24   1927.181974 -24155.659577   7956.223465    -79.943382
PR26  18362.216211   6617.033548  16448.092840   -133.544788
EOF
